0 SIMPL
1 42983U 98067NF  20137.62770241 +.00002579 +00000-0 +35790-4 0  9999
2 42983 051.6382 105.9063 0003141 307.2990 052.7717 15.61334093145314
0 KOREASAT 5A
1 42984U 17067A   20137.77756244 -.00000362 +00000-0 +00000-0 0  9995
2 42984 000.0028 295.8953 0001478 143.3158 188.8032 01.00273000009344
0 KOREASAT 5A
1 42984U 17067A   20138.10674619 -.00000361 +00000-0 +00000-0 0  9997
2 42984 000.0039 288.6758 0001458 151.6882 306.4822 01.00272849009258
0 COSMOS 2523
1 42986U 17037E   20138.18280899 -.00000020 +00000-0 +40979-5 0  9993
2 42986 097.7591 201.5184 0080035 044.3953 316.3654 14.86687229138175
0 COSMOS 2523
1 42986U 17037E   20137.77898105 +.00000061 +00000-0 +12637-4 0  9995
2 42986 097.7592 201.1237 0080203 045.6552 315.1184 14.86687753138118
0 SKYSAT C11
1 42987U 17068A   20138.10610712 +.00001007 +00000-0 +28923-4 0  9990
2 42987 097.2267 252.8028 0010731 155.9499 204.2250 15.38122920141268
0 SKYSAT C10
1 42988U 17068B   20138.15904506 +.00000948 +00000-0 +27409-4 0  9994
2 42988 097.2309 252.6160 0003448 175.4166 184.7112 15.38091882141290
0 SKYSAT C9
1 42989U 17068C   20137.88681043 +.00000935 +00000-0 +27067-4 0  9998
2 42989 097.2271 251.9802 0003187 075.1678 284.9920 15.38082875141447
0 SKYSAT C8
1 42990U 17068D   20138.07406704 +.00000982 +00000-0 +28243-4 0  9990
2 42990 097.2307 252.9147 0003533 143.4817 216.6670 15.38160970141303
0 SKYSAT C8
1 42990U 17068D   20137.74879134 +.00000973 +00000-0 +28009-4 0  9994
2 42990 097.2307 252.5941 0003507 144.3051 215.8429 15.38160258141258
0 SKYSAT C7
1 42991U 17068E   20137.54186369 +.00000959 +00000-0 +27699-4 0  9992
2 42991 097.2312 252.3862 0002013 109.7922 250.3541 15.38094634141228
0 SKYSAT C7
1 42991U 17068E   20137.86715311 +.00000961 +00000-0 +27751-4 0  9994
2 42991 097.2313 252.7068 0002029 109.7377 250.4087 15.38095357141276
0 SKYSAT C6
1 42992U 17068F   20138.05210744 +.00000966 +00000-0 +27890-4 0  9996
2 42992 097.2326 253.0919 0003667 088.9471 271.2194 15.38096456141318
0 SKYSAT C6
1 42992U 17068F   20137.59670255 +.00000967 +00000-0 +27908-4 0  9992
2 42992 097.2325 252.6430 0003673 089.7936 270.3730 15.38095488141244
0 MINOTAUR-C DEB
1 42993U 17068G   20137.69749094 +.00000445 +00000-0 +24215-4 0  9991
2 42993 097.4069 245.1885 0017291 220.2545 139.7411 15.19389962140810
0 MINOTAUR-C DEB
1 42993U 17068G   20138.02678122 +.00000451 +00000-0 +24495-4 0  9999
2 42993 097.4068 245.5115 0017319 219.0515 140.9470 15.19390275140866
0 MINOTAUR-C R/B
1 42994U 17068H   20138.25509782 +.00000356 +00000-0 +20266-4 0  9996
2 42994 097.4007 244.5605 0017408 222.4511 137.5378 15.18877740140861
0 MINOTAUR-C R/B
1 42994U 17068H   20137.72805581 +.00000368 +00000-0 +20849-4 0  9993
2 42994 097.4007 244.0443 0017360 224.3592 135.6253 15.18877326140785
0 FLOCK 3M 1
1 42995U 17068J   20137.69841288 +.00001390 +00000-0 +64860-4 0  9991
2 42995 097.3926 244.9807 0015366 215.1722 144.8501 15.21414011140909
0 FLOCK 3M 3
1 42996U 17068K   20137.71495658 +.00001389 +00000-0 +64403-4 0  9992
2 42996 097.3870 244.6559 0014528 215.3366 144.6908 15.21650378140923
0 FLOCK 3M 3
1 42996U 17068K   20138.24103913 +.00001377 +00000-0 +63865-4 0  9999
2 42996 097.3871 245.1723 0014576 213.3871 146.6448 15.21651757141008
0 FLOCK 3M 4
1 42997U 17068L   20138.20264817 +.00000550 +00000-0 +27713-4 0  9991
2 42997 097.4153 247.8243 0014584 215.5598 144.4667 15.21214849140980
0 FLOCK 3M 4
1 42997U 17068L   20137.54485700 +.00000587 +00000-0 +29370-4 0  9994
2 42997 097.4152 247.1765 0014523 217.9616 142.0597 15.21214223140882
0 FLOCK 3M 2
1 42998U 17068M   20137.70586487 +.00001529 +00000-0 +71493-4 0  9997
2 42998 097.4027 246.0829 0013285 212.1294 147.9133 15.21219315140917
0 FLOCK 3M 2
1 42998U 17068M   20138.23209562 +.00001671 +00000-0 +77854-4 0  9997
2 42998 097.4028 246.6003 0013325 210.2067 149.8402 15.21221817140998
0 BEIDOU-3 M1
1 43001U 17069A   20138.22255284 +.00000083 +00000-0 +00000-0 0  9996
2 43001 055.2047 137.2458 0012343 287.8916 069.4068 01.86231810017211
0 BEIDOU-3 M1
1 43001U 17069A   20137.68697483 +.00000081 +00000-0 +00000-0 0  9994
2 43001 055.2045 137.2637 0012339 287.8352 070.3826 01.86231810017209
0 BEIDOU-3 M2
1 43002U 17069B   20137.61989039 +.00000080 +00000-0 +00000-0 0  9998
2 43002 055.2052 137.3017 0011197 304.9890 052.2043 01.86231481017192
0 BEIDOU-3 M2
1 43002U 17069B   20137.93296556 +.00000082 +00000-0 +00000-0 0  9990
2 43002 055.2052 137.2913 0011198 305.0399 262.0556 01.86231481017205
0 CZ-3B R/B
1 43004U 17069D   20137.84876431 +.00110420 +12027-7 +10648-2 0  9996
2 43004 054.9538 282.7728 5148167 151.6829 250.1278 05.52765865045707
0 CZ-3B R/B
1 43004U 17069D   20137.48708877 +.00109219 -26078-8 +10526-2 0  9996
2 43004 054.9536 283.0509 5148643 151.5270 250.4613 05.52686847045689
0 MOHAMMED VI-A
1 43005U 17070A   20137.86885894 +.00000029 +00000-0 +11332-4 0  9991
2 43005 097.9420 210.0645 0001348 087.4741 272.6611 14.77097718135926
0 MOHAMMED VI-A
1 43005U 17070A   20138.20756631 +.00000038 +00000-0 +12519-4 0  9994
2 43005 097.9421 210.3981 0001350 088.9853 271.1524 14.77097853135978
0 FENGYUN 3D
1 43010U 17072A   20138.07688829 +.00000009 +00000-0 +24934-4 0  9992
2 43010 098.7500 077.7682 0001708 130.4344 229.6984 14.19742309129744
0 FENGYUN 3D
1 43010U 17072A   20137.86546337 +.00000007 +00000-0 +23840-4 0  9998
2 43010 098.7500 077.5592 0001708 130.9281 229.2044 14.19742261129714
0 HEAD-1
1 43011U 17072B   20137.81583596 -.00000173 +00000-0 -53018-4 0  9998
2 43011 098.7573 087.8845 0011093 115.2793 244.9546 14.26593961130332
0 HEAD-1
1 43011U 17072B   20138.09638294 -.00000174 +00000-0 -53692-4 0  9994
2 43011 098.7572 088.1651 0011123 114.6894 245.5450 14.26593875130378
0 CZ-4C R/B
1 43012U 17072C   20138.00196188 -.00000014 +00000-0 +85878-5 0  9991
2 43012 098.7214 128.3203 0128522 123.4613 237.8947 14.56080203133042
0 CZ-4C R/B
1 43012U 17072C   20137.72708927 -.00000013 +00000-0 +88722-5 0  9999
2 43012 098.7214 128.0330 0128506 124.2932 237.0508 14.56080184133004
0 NOAA 20
1 43013U 17073A   20137.77856525 -.00000005 +00000-0 +18432-4 0  9995
2 43013 098.7162 076.2187 0001550 083.5168 276.6184 14.19553814129163
0 NOAA 20
1 43013U 17073A   20138.27195576 -.00000018 +00000-0 +12156-4 0  9994
2 43013 098.7163 076.7043 0001553 083.2652 276.8700 14.19553825129234
0 BUCCANEER RMM
1 43014U 17073B   20138.20992762 +.00000676 +00000-0 +59033-4 0  9994
2 43014 097.7179 050.5357 0250087 153.3370 208.0960 14.79124750134523
0 BUCCANEER RMM
1 43014U 17073B   20137.73637146 +.00000668 +00000-0 +58398-4 0  9997
2 43014 097.7178 050.0806 0250052 154.8770 206.4857 14.79124091134455
0 MIRATA
1 43015U 17073C   20137.82313909 +.00000468 +00000-0 +41314-4 0  9994
2 43015 097.7204 051.2424 0254010 151.4676 210.0715 14.79593973134544
0 MAKERSAT 0
1 43016U 17073D   20137.70765850 +.00000314 +00000-0 +29497-4 0  9996
2 43016 097.7240 051.3176 0256743 152.8318 208.6601 14.79176347134519
0 MAKERSAT 0
1 43016U 17073D   20138.04590100 +.00000318 +00000-0 +29785-4 0  9992
2 43016 097.7240 051.6430 0256772 151.7312 209.8115 14.79176632134564
0 AO-91
1 43017U 17073E   20138.19914234 +.00000223 +00000-0 +22624-4 0  9997
2 43017 097.7244 051.6418 0257712 151.9084 209.6314 14.78904871134548
0 AO-91
1 43017U 17073E   20137.72551580 +.00000229 +00000-0 +23054-4 0  9990
2 43017 097.7243 051.1863 0257685 153.4482 208.0201 14.78904604134478
0 EAGLESAT 1
1 43018U 17073F   20137.71326722 +.00000427 +00000-0 +37965-4 0  9994
2 43018 097.7237 051.5699 0255555 151.8061 209.7264 14.79567920134364
0 EAGLESAT 1
1 43018U 17073F   20138.05142016 +.00000427 +00000-0 +37936-4 0  9992
2 43018 097.7237 051.8954 0255576 150.7049 210.8776 14.79568255134417
0 ECAMSAT
1 43019U 98067NG  20138.23966754 +.00005277 +00000-0 +56407-4 0  9990
2 43019 051.6402 089.8215 0002855 299.1490 060.9220 15.65792769227900
0 DELLINGR (RBLE)
1 43021U 98067NJ  20137.99670580 +.00009912 +00000-0 +85476-4 0  9992
2 43021 051.6358 080.5033 0000907 000.7375 359.3624 15.69986816141925
0 DELLINGR (RBLE)
1 43021U 98067NJ  20137.86940164 +.00009747 +00000-0 +84149-4 0  9998
2 43021 051.6356 081.1533 0000915 000.2321 359.8677 15.69983845141900
0 JILIN-01-04
1 43022U 17074A   20137.89628939 -.00000177 +00000-0 -70255-5 0  9998
2 43022 097.5243 232.2172 0009220 033.8588 075.9030 15.09910009136941
0 JILIN-01-04
1 43022U 17074A   20138.22282851 -.00000074 +00000-0 -68256-6 0  9990
2 43022 097.5243 232.5378 0009129 032.7010 050.9071 15.09910822136994
0 JILIN-01-05
1 43023U 17074B   20138.11871826 -.00000003 +00000-0 +36805-5 0  9990
2 43023 097.5253 232.5547 0009577 042.8141 075.6845 15.09916530136971
0 JILIN-01-05
1 43023U 17074B   20137.92276250 +.00000042 +00000-0 +64682-5 0  9994
2 43023 097.5252 232.3623 0009598 043.1827 090.8338 15.09916896136949
0 JILIN-01-06
1 43024U 17074C   20137.87744450 -.00000543 +00000-0 -29563-4 0  9997
2 43024 097.5251 232.2618 0012152 045.0748 088.2621 15.09908873136936
0 CZ-6 R/B
1 43025U 17074D   20137.61994554 +.00000906 +00000-0 +23766-4 0  9992
2 43025 097.5967 270.8959 0093958 029.8993 330.7571 15.37293131139254
0 CZ-6 R/B
1 43025U 17074D   20138.20576211 +.00000886 +00000-0 +23302-4 0  9997
2 43025 097.5968 271.5016 0093907 027.8211 332.8009 15.37294165139349
0 YAOGAN-30 D
1 43028U 17075A   20137.91092587 +.00000140 +00000-0 +17095-4 0  9992
2 43028 034.9995 312.6586 0001587 229.5867 130.4702 14.89750919134906
0 YAOGAN-30 D
1 43028U 17075A   20137.84390780 +.00000141 +00000-0 +17156-4 0  9999
2 43028 034.9995 313.0593 0001592 228.8659 131.1908 14.89750901134891
